     2.100          NAVIGATION                              RINEX VERSION / TYPE
fic2rin                                 10/02/2014 00:28:47 PGM / RUN BY / DATE
                                                            END OF HEADER
25 14 10  1 20  0  0.0  .198138877749D-04 -.125055521494D-11  .000000000000D+00
     .630000000000D+02 -.153750000000D+02  .422803325741D-08  .175431567525D+01
    -.886619091034D-06  .366369448602D-02  .402331352234D-05  .515354501152D+04
     .331200000000D+06 -.372529029846D-08  .229982957908D+00  .260770320892D-07
     .977320797106D+00  .308125000000D+03  .715291495150D+00 -.817962642856D-08
     .303584074067D-10  .100000000000D+01  .181200000000D+04  .000000000000D+00
     .240000000000D+01  .000000000000D+00  .558793544769D-08  .630000000000D+02
     .324006000000D+06  .400000000000D+01
26 14 10  1 20  0  0.0 -.740326941013D-04 -.128466126625D-10  .000000000000D+00
     .102000000000D+03  .462812500000D+02  .406838375023D-08 -.186502180926D+01
     .246055424213D-05  .212304053130D-01  .982172787189D-05  .515368769264D+04
     .331200000000D+06  .409781932831D-06 -.176346161525D+01  .689178705215D-07
     .973470483033D+00  .193312500000D+03  .129400630723D+01 -.755710049785D-08
    -.347157317639D-09  .100000000000D+01  .181200000000D+04  .000000000000D+00
     .240000000000D+01  .000000000000D+00 -.605359673500D-08  .102000000000D+03
     .324006000000D+06  .400000000000D+01
27 14 10  1 20  0  0.0  .188904814422D-04  .295585778076D-11  .000000000000D+00
     .440000000000D+02 -.650312500000D+02  .442982737723D-08 -.746270608275D+00
    -.339560210705D-05  .149151310325D-02  .869482755661D-05  .515368122482D+04
     .331200000000D+06  .409781932831D-07  .127606131436D+01 -.745058059692D-08
     .964475842404D+00  .213000000000D+03  .343362829251D+00 -.805354974839D-08
     .985755346381D-10  .100000000000D+01  .181200000000D+04  .000000000000D+00
     .240000000000D+01  .000000000000D+00  .186264514923D-08  .440000000000D+02
     .324006000000D+06  .400000000000D+01
28 14 10  1 20  0  0.0  .388284213841D-03  .272848410532D-11  .000000000000D+00
     .840000000000D+02 -.307187500000D+02  .409695636896D-08  .217284008283D+00
    -.161677598953D-05  .193584577646D-01  .485591590405D-05  .515367914391D+04
     .331200000000D+06 -.378116965294D-06  .298074977299D+00  .130385160446D-07
     .987795776242D+00  .303343750000D+03 -.170792277887D+01 -.840356432790D-08
    -.603596570791D-10  .100000000000D+01  .181200000000D+04  .000000000000D+00
     .240000000000D+01  .000000000000D+00 -.107102096081D-07  .840000000000D+02
     .324006000000D+06  .400000000000D+01
29 14 10  1 20  0  0.0  .563963782042D-03  .238742359215D-11  .000000000000D+00
     .480000000000D+02 -.744375000000D+02  .429089301863D-08  .209290959783D+01
    -.406429171562D-05  .113587465603D-02  .848062336445D-05  .515362978554D+04
     .331200000000D+06  .186264514923D-08  .133157142927D+01  .316649675369D-07
     .970429461094D+00  .225031250000D+03 -.811413629126D+00 -.790140055362D-08
     .121790787361D-09  .100000000000D+01  .181200000000D+04  .000000000000D+00
     .240000000000D+01  .000000000000D+00 -.977888703346D-08  .480000000000D+02
     .324006000000D+06  .400000000000D+01
30 14 10  1 20  0  0.0 -.681616365910D-04 -.397903932026D-11  .000000000000D+00
     .390000000000D+02  .777500000000D+02  .456304721209D-08  .274465803638D+01
     .396557152271D-05  .103637459688D-02  .638142228127D-05  .515365905952D+04
     .331200000000D+06  .298023223877D-07 -.737860902274D+00 -.149011611938D-07
     .958077239146D+00  .256000000000D+03 -.313355504665D+01 -.826963017758D-08
     .671456540289D-10  .100000000000D+01  .181200000000D+04  .000000000000D+00
     .240000000000D+01  .000000000000D+00  .325962901115D-08  .390000000000D+02
     .324006000000D+06  .400000000000D+01
31 14 10  1 20  0  0.0  .331074465066D-03 -.454747350886D-12  .000000000000D+00
     .120000000000D+02  .610312500000D+02  .402731061080D-08  .287006813409D+01
     .325590372086D-05  .808036851231D-02  .669248402119D-05  .515364119530D+04
     .331200000000D+06 -.167638063431D-07 -.783834230825D+00  .106170773506D-06
     .977333621045D+00  .261375000000D+03 -.630149768267D+00 -.786818488434D-08
     .321441960776D-11  .100000000000D+01  .181200000000D+04  .000000000000D+00
     .240000000000D+01  .000000000000D+00 -.130385160446D-07  .120000000000D+02
     .324006000000D+06  .400000000000D+01
32 14 10  1 20  0  0.0 -.327426008880D-03  .875388650456D-11  .000000000000D+00
     .260000000000D+02  .243750000000D+01  .497592155282D-08 -.288917554119D+01
     .223517417908D-07  .114269946935D-01  .761263072491D-05  .515364273071D+04
     .331200000000D+06 -.232830643654D-06 -.282595533597D+01  .521540641785D-07
     .947770855466D+00  .224656250000D+03 -.748816387094D-01 -.808712257540D-08
    -.255367779950D-09  .100000000000D+01  .181200000000D+04  .000000000000D+00
     .240000000000D+01  .000000000000D+00 -.325962901115D-08  .260000000000D+02
     .324006000000D+06  .400000000000D+01
18 14 10  1 19 59 44.0  .348534900695D-03  .250111042988D-11  .000000000000D+00
     .100000000000D+01  .190625000000D+01  .581881380552D-08  .932376366635D+00
     .150874257088D-06  .154772790847D-01  .706128776073D-05  .515372762299D+04
     .331184000000D+06 -.199303030968D-06 -.292279202789D+01  .115483999252D-06
     .925879364581D+00  .230031250000D+03 -.200886801899D+01 -.893394356318D-08
    -.220723479733D-09  .100000000000D+01  .181200000000D+04  .000000000000D+00
     .240000000000D+01  .000000000000D+00 -.107102096081D-07  .100000000000D+01
     .326106000000D+06  .400000000000D+01
 4 14 10  1 19 59 44.0 -.118790194392D-05 -.341060513165D-12  .000000000000D+00
     .100000000000D+01 -.562500000000D+01  .514914305390D-08  .263785116715D+01
    -.394880771637D-06  .111244831933D-01  .908039510250D-05  .515199434280D+04
     .331184000000D+06  .316649675369D-07  .231551367010D+01 -.117346644402D-06
     .938889115540D+00  .192687500000D+03  .108230270675D+01 -.811783814054D-08
     .357514891930D-09  .100000000000D+01  .181200000000D+04  .000000000000D+00
     .240000000000D+01  .000000000000D+00 -.651925802231D-08  .100000000000D+01
     .326736000000D+06  .400000000000D+01
 6 14 10  1 19 59 44.0 -.287173315883D-05  .193267624127D-11  .000000000000D+00
     .700000000000D+01 -.133750000000D+02  .471341061819D-08  .180159621034D+00
    -.575557351112D-06  .558104715310D-03  .939704477787D-05  .515361024284D+04
     .331184000000D+06  .111758708954D-07  .232364882733D+01  .521540641785D-07
     .961235632465D+00  .199250000000D+03  .215360309337D+01 -.803962059675D-08
     .382158775590D-09  .100000000000D+01  .181200000000D+04  .000000000000D+00
     .240000000000D+01  .000000000000D+00  .465661287308D-08  .700000000000D+01
     .330426000000D+06  .400000000000D+01
 4 14 10  1 21 59 44.0 -.119069591165D-05 -.341060513165D-12  .000000000000D+00
     .700000000000D+01 -.337500000000D+01  .512199906611D-08 -.259414264205D+01
    -.422820448875D-06  .111244549043D-01  .883452594280D-05  .515199438477D+04
     .338384000000D+06  .117346644402D-06  .231545475546D+01 -.651925802231D-07
     .938891797069D+00  .195406250000D+03  .108232371572D+01 -.814819654795D-08
     .425374861428D-09  .100000000000D+01  .181200000000D+04  .000000000000D+00
     .240000000000D+01  .000000000000D+00 -.651925802231D-08  .700000000000D+01
     .331206000000D+06  .400000000000D+01
 6 14 10  1 21 59 44.0 -.285822898149D-05  .193267624127D-11  .000000000000D+00
     .800000000000D+01 -.981250000000D+01  .471341061819D-08  .123052555923D+01
    -.430271029472D-06  .557736027986D-03  .947900116444D-05  .515360961914D+04
     .338384000000D+06  .000000000000D+00  .232359095430D+01  .335276126862D-07
     .961238442731D+00  .198593750000D+03  .215345872091D+01 -.803283459980D-08
     .388944772540D-09  .100000000000D+01  .181200000000D+04  .000000000000D+00
     .240000000000D+01  .000000000000D+00  .465661287308D-08  .800000000000D+01
     .331206000000D+06  .400000000000D+01
18 14 10  1 21 59 44.0  .348553061485D-03  .250111042988D-11  .000000000000D+00
     .200000000000D+01  .478125000000D+01  .564952103951D-08  .198256453688D+01
    -.186264514923D-07  .154772712849D-01  .693276524544D-05  .515372671509D+04
     .338384000000D+06 -.931322574615D-07 -.292285635240D+01 -.387430191040D-06
     .925880324255D+00  .228062500000D+03 -.200889830871D+01 -.846785272005D-08
    -.278583032673D-10  .100000000000D+01  .181200000000D+04  .000000000000D+00
     .240000000000D+01  .000000000000D+00 -.107102096081D-07  .200000000000D+01
     .331206000000D+06  .400000000000D+01
 1 14 10  1 22  0  0.0  .219540670514D-04  .454747350886D-12  .000000000000D+00
     .760000000000D+02 -.328125000000D+01  .465555106525D-08 -.179748709436D+01
    -.361353158951D-06  .353972380981D-02  .901333987713D-05  .515367214394D+04
     .338400000000D+06 -.186264514923D-07  .233214992475D+01 -.577419996262D-07
     .961326001304D+00  .205781250000D+03  .425280628474D+00 -.801926260590D-08
     .385373195198D-09  .100000000000D+01  .181200000000D+04  .000000000000D+00
     .240000000000D+01  .000000000000D+00  .558793544769D-08  .760000000000D+02
     .331206000000D+06  .400000000000D+01
 2 14 10  1 22  0  0.0  .521704554558D-03  .227373675443D-11  .000000000000D+00
     .970000000000D+02 -.631250000000D+01  .520378818724D-08 -.107631094101D+01
    -.124797224998D-06  .138006804045D-01  .904873013496D-05  .515368312073D+04
     .338400000000D+06  .331550836563D-06  .229977104626D+01  .184401869774D-06
     .939869538367D+00  .191093750000D+03 -.238435538965D+01 -.829355974577D-08
     .402159608705D-09  .100000000000D+01  .181200000000D+04  .000000000000D+00
     .240000000000D+01  .000000000000D+00 -.200234353542D-07  .970000000000D+02
     .331206000000D+06  .400000000000D+01
